{"type": "FeatureCollection", "features": [ {"type": "Feature", "properties": {"norad_id": 33492, "name": "GOSAT (IBUKI)", "group": "resource", "lat": -68.38621841687642, "lon": 111.61549615692576, "alt_km": 676.8359098405936, "timestamp": "2025-12-07T22:37:42.739523+00:00", "meta": {"OBJECT_NAME": "GOSAT (IBUKI)", "OBJECT_ID": "2009-002A", "EPOCH": "2025-12-07T04:56:47.382144", "MEAN_MOTION": 14.67538112, "ECCENTRICITY": 0.0001013, "INCLINATION": 98.077, "RA_OF_ASC_NODE": 89.8863, "ARG_OF_PERICENTER": 87.0443, "MEAN_ANOMALY": 273.0877, "EPHEMERIS_TYPE": 0, "CLASSIFICATION_TYPE": "U", "NORAD_CAT_ID": 33492, "ELEMENT_SET_NO": 999, "REV_AT_EPOCH": 90330, "BSTAR": 0.00031591468, "MEAN_MOTION_DOT": 1.744e-05, "MEAN_MOTION_DDOT": 0}, "tle": {"line1": "1 33492U 09002A   25341.20610396  .00001744  00000+0  31591-3 0  9991", "line2": "2 33492  98.0770  89.8863 0001013  87.0443 273.0877 14.67538112903304"}}, "geometry": {"type": "Point", "coordinates": [111.61549615692576, -68.38621841687642]}}, {"type": "Feature", "properties": {"norad_id": 35681, "name": "DEIMOS-1", "group": "resource", "lat": -59.665534439707415, "lon": -50.626109032112666, "alt_km": 654.1562129458198, "timestamp": "2025-12-07T22:37:42.739533+00:00", "meta": {"OBJECT_NAME": "DEIMOS-1", "OBJECT_ID": "2009-041A", "EPOCH": "2025-12-07T06:53:16.658304", "MEAN_MOTION": 14.74940019, "ECCENTRICITY": 0.00026955, "INCLINATION": 97.7153, "RA_OF_ASC_NODE": 142.1446, "ARG_OF_PERICENTER": 90.5898, "MEAN_ANOMALY": 269.5621, "EPHEMERIS_TYPE": 0, "CLASSIFICATION_TYPE": "U", "NORAD_CAT_ID": 35681, "ELEMENT_SET_NO": 999, "REV_AT_EPOCH": 87859, "BSTAR": 0.00020617173, "MEAN_MOTION_DOT": 1.338e-05, "MEAN_MOTION_DDOT": 0}, "tle": {"line1": "1 35681U 09041A   25341.28699836  .00001338  00000+0  20617-3 0  9996", "line2": "2 35681  97.7153 142.1446 0002695  90.5898 269.5621 14.74940019878597"}}, "geometry": {"type": "Point", "coordinates": [-50.626109032112666, -59.665534439707415]}}, {"type": "Feature", "properties": {"norad_id": 35682, "name": "DUBAISAT-1", "group": "resource", "lat": -1.4003408218628566, "lon": -67.50309098422248, "alt_km": 655.6774855660351, "timestamp": "2025-12-07T22:37:42.739545+00:00", "meta": {"OBJECT_NAME": "DUBAISAT-1", "OBJECT_ID": "2009-041B", "EPOCH": "2025-12-07T07:09:04.996800", "MEAN_MOTION": 14.74580627, "ECCENTRICITY": 0.00098868, "INCLINATION": 97.979, "RA_OF_ASC_NODE": 112.0582, "ARG_OF_PERICENTER": 333.3498, "MEAN_ANOMALY": 26.7201, "EPHEMERIS_TYPE": 0, "CLASSIFICATION_TYPE": "U", "NORAD_CAT_ID": 35682, "ELEMENT_SET_NO": 999, "REV_AT_EPOCH": 87681, "BSTAR": 0.00040160615, "MEAN_MOTION_DOT": 2.627e-05, "MEAN_MOTION_DDOT": 0}, "tle": {"line1": "1 35682U 09041B   25341.29797450  .00002627  00000+0  40161-3 0  9997", "line2": "2 35682  97.9790 112.0582 0009886 333.3498  26.7201 14.74580627876812"}}, "geometry": {"type": "Point", "coordinates": [-67.50309098422248, -1.4003408218628566]}}, {"type": "Feature", "properties": {"norad_id": 35931, "name": "OCEANSAT-2", "group": "resource", "lat": -31.48121928704336, "lon": 157.9501255308795, "alt_km": 911.8507602527625, "timestamp": "2025-12-07T22:37:42.739556+00:00", "meta": {"OBJECT_NAME": "OCEANSAT-2", "OBJECT_ID": "2009-051A", "EPOCH": "2025-12-07T06:10:47.174880", "MEAN_MOTION": 13.99625869, "ECCENTRICITY": 0.00164339, "INCLINATION": 98.2227, "RA_OF_ASC_NODE": 342.4141, "ARG_OF_PERICENTER": 59.311, "MEAN_ANOMALY": 300.9673, "EPHEMERIS_TYPE": 0, "CLASSIFICATION_TYPE": "U", "NORAD_CAT_ID": 35931, "ELEMENT_SET_NO": 999, "REV_AT_EPOCH": 85248, "BSTAR": -7.8819889e-05, "MEAN_MOTION_DOT": -1.53e-06, "MEAN_MOTION_DDOT": 0}, "tle": {"line1": "1 35931U 09051A   25341.25749045 -.00000153  00000+0 -78820-4 0  9996", "line2": "2 35931  98.2227 342.4141 0016433  59.3110 300.9673 13.99625869852481"}}, "geometry": {"type": "Point", "coordinates": [157.9501255308795, -31.48121928704336]}}, {"type": "Feature", "properties": {"norad_id": 35946, "name": "WORLDVIEW-2 (WV-2)", "group": "resource", "lat": 36.21796849791855, "lon": 46.82364910285941, "alt_km": 760.8282207914963, "timestamp": "2025-12-07T22:37:42.739566+00:00", "meta": {"OBJECT_NAME": "WORLDVIEW-2 (WV-2)", "OBJECT_ID": "2009-055A", "EPOCH": "2025-12-07T07:25:31.317600", "MEAN_MOTION": 14.37649091, "ECCENTRICITY": 0.0005394, "INCLINATION": 98.4766, "RA_OF_ASC_NODE": 52.4694, "ARG_OF_PERICENTER": 79.932, "MEAN_ANOMALY": 280.2475, "EPHEMERIS_TYPE": 0, "CLASSIFICATION_TYPE": "U", "NORAD_CAT_ID": 35946, "ELEMENT_SET_NO": 999, "REV_AT_EPOCH": 84807, "BSTAR": 0.00014432801, "MEAN_MOTION_DOT": 3.9e-06, "MEAN_MOTION_DDOT": 0}, "tle": {"line1": "1 35946U 09055A   25341.30939025  .00000390  00000+0  14433-3 0  9991", "line2": "2 35946  98.4766  52.4694 0005394  79.9320 280.2475 14.37649091848079"}}, "geometry": {"type": "Point", "coordinates": [46.82364910285941, 36.21796849791855]}}, {"type": "Feature", "properties": {"norad_id": 36036, "name": "SMOS", "group": "resource", "lat": 35.965572096557985, "lon": 160.87807869778817, "alt_km": 756.3095940316034, "timestamp": "2025-12-07T22:37:42.739576+00:00", "meta": {"OBJECT_NAME": "SMOS", "OBJECT_ID": "2009-059A", "EPOCH": "2025-12-07T05:46:49.980000", "MEAN_MOTION": 14.39733927, "ECCENTRICITY": 0.00011348, "INCLINATION": 98.4385, "RA_OF_ASC_NODE": 166.3706, "ARG_OF_PERICENTER": 84.9916, "MEAN_ANOMALY": 275.1402, "EPHEMERIS_TYPE": 0, "CLASSIFICATION_TYPE": "U", "NORAD_CAT_ID": 36036, "ELEMENT_SET_NO": 999, "REV_AT_EPOCH": 84583, "BSTAR": 0.00024983742, "MEAN_MOTION_DOT": 7.39e-06, "MEAN_MOTION_DDOT": 0}, "tle": {"line1": "1 36036U 09059A   25341.24085625  .00000739  00000+0  24984-3 0  9996", "line2": "2 36036  98.4385 166.3706 0001134  84.9916 275.1402 14.39733927845839"}}, "geometry": {"type": "Point", "coordinates": [160.87807869778817, 35.965572096557985]}}, {"type": "Feature", "properties": {"norad_id": 36110, "name": "YAOGAN-7", "group": "resource", "lat": -71.75972857312183, "lon": -110.91884025885224, "alt_km": 627.6027315425863, "timestamp": "2025-12-07T22:37:42.739587+00:00", "meta": {"OBJECT_NAME": "YAOGAN-7", "OBJECT_ID": "2009-069A", "EPOCH": "2025-12-07T03:27:30.417120", "MEAN_MOTION": 14.77719456, "ECCENTRICITY": 0.00235706, "INCLINATION": 98.0304, "RA_OF_ASC_NODE": 222.9209, "ARG_OF_PERICENTER": 300.3256, "MEAN_ANOMALY": 59.5623, "EPHEMERIS_TYPE": 0, "CLASSIFICATION_TYPE": "U", "NORAD_CAT_ID": 36110, "ELEMENT_SET_NO": 999, "REV_AT_EPOCH": 86126, "BSTAR": 0.0001836924, "MEAN_MOTION_DOT": 1.269e-05, "MEAN_MOTION_DDOT": 0}, "tle": {"line1": "1 36110U 09069A   25341.14410205  .00001269  00000+0  18369-3 0  9994", "line2": "2 36110  98.0304 222.9209 0023570 300.3256  59.5623 14.77719456861263"}}, "geometry": {"type": "Point", "coordinates": [-110.91884025885224, -71.75972857312183]}}, {"type": "Feature", "properties": {"norad_id": 36605, "name": "TANDEM-X", "group": "resource", "lat": 1.6947403661074134, "lon": 167.61497562348578, "alt_km": 511.1643839647004, "timestamp": "2025-12-07T22:37:42.739598+00:00", "meta": {"OBJECT_NAME": "TANDEM-X", "OBJECT_ID": "2010-030A", "EPOCH": "2025-12-06T14:13:48.617184", "MEAN_MOTION": 15.19146828, "ECCENTRICITY": 0.00021111, "INCLINATION": 97.4449, "RA_OF_ASC_NODE": 346.063, "ARG_OF_PERICENTER": 96.3345, "MEAN_ANOMALY": 263.813, "EPHEMERIS_TYPE": 0, "CLASSIFICATION_TYPE": "U", "NORAD_CAT_ID": 36605, "ELEMENT_SET_NO": 999, "REV_AT_EPOCH": 85740, "BSTAR": 0.00017045926, "MEAN_MOTION_DOT": 3.514e-05, "MEAN_MOTION_DDOT": 0}, "tle": {"line1": "1 36605U 10030A   25340.59292381  .00003514  00000+0  17046-3 0  9990", "line2": "2 36605  97.4449 346.0630 0002111  96.3345 263.8130 15.19146828857408"}}, "geometry": {"type": "Point", "coordinates": [167.61497562348578, 1.6947403661074134]}}, {"type": "Feature", "properties": {"norad_id": 36795, "name": "CARTOSAT-2B", "group": "resource", "lat": -16.23059500254673, "lon": -151.1536488493016, "alt_km": 640.3348090406334, "timestamp": "2025-12-07T22:37:42.739609+00:00", "meta": {"OBJECT_NAME": "CARTOSAT-2B", "OBJECT_ID": "2010-035A", "EPOCH": "2025-12-07T07:07:46.099776", "MEAN_MOTION": 14.78777105, "ECCENTRICITY": 0.00129075, "INCLINATION": 97.786, "RA_OF_ASC_NODE": 30.5042, "ARG_OF_PERICENTER": 93.6726, "MEAN_ANOMALY": 266.5962, "EPHEMERIS_TYPE": 0, "CLASSIFICATION_TYPE": "U", "NORAD_CAT_ID": 36795, "ELEMENT_SET_NO": 999, "REV_AT_EPOCH": 83149, "BSTAR": 0.00020504491, "MEAN_MOTION_DOT": 1.459e-05, "MEAN_MOTION_DDOT": 0}, "tle": {"line1": "1 36795U 10035A   25341.29706134  .00001459  00000+0  20504-3 0  9998", "line2": "2 36795  97.7860  30.5042 0012907  93.6726 266.5962 14.78777105831493"}}, "geometry": {"type": "Point", "coordinates": [-151.1536488493016, -16.23059500254673]}}, {"type": "Feature", "properties": {"norad_id": 36834, "name": "YAOGAN-10", "group": "resource", "lat": 4.057663221304472, "lon": -177.63527555760618, "alt_km": 617.4346390628425, "timestamp": "2025-12-07T22:37:42.739619+00:00", "meta": {"OBJECT_NAME": "YAOGAN-10", "OBJECT_ID": "2010-038A", "EPOCH": "2025-12-07T07:49:35.502240", "MEAN_MOTION": 14.84576739, "ECCENTRICITY": 0.00015069, "INCLINATION": 97.9142, "RA_OF_ASC_NODE": 1.1872, "ARG_OF_PERICENTER": 85.0677, "MEAN_ANOMALY": 36.5004, "EPHEMERIS_TYPE": 0, "CLASSIFICATION_TYPE": "U", "NORAD_CAT_ID": 36834, "ELEMENT_SET_NO": 999, "REV_AT_EPOCH": 82873, "BSTAR": 0.00038137364, "MEAN_MOTION_DOT": 3.166e-05, "MEAN_MOTION_DDOT": 0}, "tle": {"line1": "1 36834U 10038A   25341.32610535  .00003166  00000+0  38137-3 0  9996", "line2": "2 36834  97.9142   1.1872 0001506  85.0677  36.5004 14.84576739828732"}}, "geometry": {"type": "Point", "coordinates": [-177.63527555760618, 4.057663221304472]}}]}